{"generatedAt":"2026-04-12T07:23:29.366791Z","satellites":[{"name":"KUIPER-00230","tle1":"1 68579C 26072G   26102.04826389  .00006285  00000+0  16271-3 0  1029","tle2":"2 68579  51.8766 136.7066 0001409  94.6577 352.7408 15.38453345    12"},{"name":"KUIPER-00231","tle1":"1 68580C 26072H   26102.05069444  .00006248  00000+0  16459-3 0  1020","tle2":"2 68580  51.8747 136.7331 0002769 108.8318 337.4410 15.37912687    10"},{"name":"KUIPER-00234","tle1":"1 68581C 26072J   26102.18682870  .00001906  00000+0  49518-4 0  1028","tle2":"2 68581  51.8758 136.0549 0002261  95.6849  33.2752 15.38346292    10"},{"name":"KUIPER-00236","tle1":"1 68582C 26072K   26102.18725694  .00001902  00000+0  49570-4 0  1025","tle2":"2 68582  51.8761 136.0532 0002699  99.7694  30.4775 15.38248719    14"},{"name":"KUIPER-00244","tle1":"1 68583C 26072L   26102.05207176  .00006216  00000+0  16401-3 0  1021","tle2":"2 68583  51.8757 136.7332 0004049 121.0030 328.1922 15.37858471    11"},{"name":"KUIPER-00253","tle1":"1 68584C 26072M   26102.05347222  .00006171  00000+0  16504-3 0  1023","tle2":"2 68584  51.8715 136.7562 0005686 128.7619 316.3764 15.37434267    12"},{"name":"KUIPER-00254","tle1":"1 68585C 26072N   26102.19486111  .00001801  00000+0  49083-4 0  1024","tle2":"2 68585  51.8717 136.1051 0007740 134.3617 357.6805 15.36840365    19"},{"name":"KUIPER-00263","tle1":"1 68586C 26072P   26102.18481482  .00001810  00000+0  46928-4 0  1025","tle2":"2 68586  51.8766 136.0500 0002006  67.7063  55.0954 15.38415651    18"},{"name":"KUIPER-00269","tle1":"1 68587C 26072Q   26102.19210648  .00001975  00000+0  52581-4 0  1025","tle2":"2 68587  51.8742 136.0702 0004579 112.2335  27.1390 15.37584351    19"},{"name":"KUIPER-00272","tle1":"1 68588C 26072R   26102.05451389  .00006104  00000+0  16371-3 0  1025","tle2":"2 68588  51.8724 136.7546 0005924 125.8708 322.9174 15.37346012    18"},{"name":"KUIPER-00285","tle1":"1 68589C 26072S   26102.19417824  .00001952  00000+0  52503-4 0  1021","tle2":"2 68589  51.8735 136.0845 0006409 132.4170   6.8030 15.37259518    15"},{"name":"KUIPER-00286","tle1":"1 68590C 26072T   26102.19150463  .00001976  00000+0  52437-4 0  1028","tle2":"2 68590  51.8733 136.0729 0004262 115.4490  21.2769 15.37682163    13"},{"name":"KUIPER-00289","tle1":"1 68591C 26072U   26102.15250000  .00002139  00000+0  59947-4 0  1028","tle2":"2 68591  51.8651 136.3653 0010959 148.0183  82.8318 15.35944667    14"},{"name":"KUIPER-00290","tle1":"1 68592C 26072V   26102.15219907  .00002173  00000+0  60722-4 0  1021","tle2":"2 68592  51.8636 136.3612 0010961 144.3489  87.4695 15.36037622    18"},{"name":"KUIPER-00293","tle1":"1 68593C 26072W   26102.15392361  .00001989  00000+0  56200-4 0  1028","tle2":"2 68593  51.8633 136.3740 0011973 150.8741  80.0675 15.35669298    11"},{"name":"KUIPER-00294","tle1":"1 68594C 26072X   26102.15076389  .00002282  00000+0  63431-4 0  1029","tle2":"2 68594  51.8675 136.3567 0009801 145.3185  84.2712 15.36213714    10"},{"name":"KUIPER-00296","tle1":"1 68595C 26072Y   26102.14903935  .00002414  00000+0  66279-4 0  1025","tle2":"2 68595  51.8697 136.3437 0008570 139.0164  91.2978 15.36604388    13"},{"name":"KUIPER-00297","tle1":"1 68596C 26072Z   26102.15150463  .00002232  00000+0  62186-4 0  1028","tle2":"2 68596  51.8622 136.3592 0010293 145.8217  84.6732 15.36126151    14"},{"name":"KUIPER-00300","tle1":"1 68597C 26072AA  26102.19524306  .00001767  00000+0  48231-4 0  1021","tle2":"2 68597  51.8672 136.1095 0008163 139.2788 352.4560 15.36787654    15"},{"name":"KUIPER-00301","tle1":"1 68598C 26072AB  26102.19697917  .00001673  00000+0  46137-4 0  1020","tle2":"2 68598  51.8649 136.1189 0008856 142.4795 350.0488 15.36461619    10"},{"name":"KUIPER-00304","tle1":"1 68599C 26072AC  26102.15010417  .00002333  00000+0  64532-4 0  1024","tle2":"2 68599  51.8661 136.3502 0009516 142.0016  88.6423 15.36370060    14"},{"name":"KUIPER-00317","tle1":"1 68600C 26072AD  26102.19590278  .00001743  00000+0  47722-4 0  1025","tle2":"2 68600  51.8685 136.1124 0008585 134.6357 357.6171 15.36690589    11"},{"name":"KUIPER-00320","tle1":"1 68601C 26072AE  26102.15319444  .00002084  00000+0  58510-4 0  1022","tle2":"2 68601  51.8598 136.3642 0011285 148.0279  84.8425 15.35878887    14"}]}